OBJECT_NAME,OBJECT_ID,EPOCH,MEAN_MOTION,ECCENTRICITY,INCLINATION,RA_OF_ASC_NODE,ARG_OF_PERICENTER,MEAN_ANOMALY,EPHEMERIS_TYPE,CLASSIFICATION_TYPE,NORAD_CAT_ID,ELEMENT_SET_NO,REV_AT_EPOCH,BSTAR,MEAN_MOTION_DOT,MEAN_MOTION_DDOT
SITRO-AIS 6 (CHIRKIN),2023-091AC,2026-06-15T03:31:36.306336,15.25902754,.0013097,97.5072,229.1566,112.7159,247.5465,0,U,57192,999,16397,.37645E-3,.9603E-4,0
SITRO-AIS 8 (ANOKHIN),2023-091AD,2026-06-15T04:38:11.272128,15.32089193,.0011814,97.5062,231.6539,106.0238,254.2306,0,U,57193,999,16414,.39833E-3,.12294E-3,0
SITRO-AIS 7 (FARTUSHNIY),2023-091AE,2026-06-15T03:35:32.398656,15.25589823,.0012938,97.5070,228.9854,113.6715,246.5882,0,U,57194,999,16396,.33338E-3,.8415E-4,0
AVION KALUGA 650,2023-091AF,2026-06-15T04:30:16.658784,15.20333269,.0011861,97.5092,225.7720,115.2938,244.9527,0,U,57195,999,16372,.23219E-3,.4988E-4,0
HORS 2,2023-091AG,2026-06-15T03:20:30.386976,15.31849169,.000942,97.5095,233.1407,94.0027,266.2291,0,U,57196,999,16421,.40796E-3,.12489E-3,0
A-SEANSAT-PG1,2023-091AH,2026-06-15T04:30:59.642784,15.36901617,.0008372,97.5086,235.7266,90.8735,269.3468,0,U,57197,999,16440,.42873E-3,.15415E-3,0
SITRO-AIS 10 (BURDAEV),2023-091AK,2026-06-15T04:02:01.319712,15.38545997,.0007643,97.5088,236.6616,86.2092,274.0027,0,U,57199,999,16445,.43672E-3,.16563E-3,0
SITRO-AIS 9 (SHCHUKIN),2023-091AM,2026-06-15T04:39:06.746112,15.38056901,.0007878,97.5085,236.4196,86.3283,273.8863,0,U,57201,999,16444,.42147E-3,.15728E-3,0
UTMN 2 (RS27S),2023-091AP,2026-06-15T04:00:00.777024,15.32009178,.000937,97.5093,233.3594,89.8342,270.3973,0,U,57203,999,16423,.33166E-3,.10186E-3,0
SITRO-AIS 12 (SMIRENNIY),2023-091AQ,2026-06-15T04:26:09.204000,15.38348571,.0007436,97.5098,236.8764,81.3128,278.8959,0,U,57204,999,16446,.43206E-3,.16279E-3,0
SITRO-AIS 11 (SHEFFER),2023-091AU,2026-06-15T03:12:37.409184,15.38774250,.0007323,97.5097,237.0693,81.5105,278.6970,0,U,57208,999,16447,.50365E-3,.19262E-3,0
H2SAT (HEINRICH HERTZ),2023-093A,2026-06-14T16:22:38.496000,1.00272092,.00008601,0.0576,110.9536,82.8758,315.5159,0,U,57213,999,1089,0,.9E-7,0
KUZGTU 1 (RS47S),2023-091AV,2026-06-15T03:17:40.020000,15.29823419,.0012346,97.5069,230.5962,104.3201,255.9411,0,U,57217,999,16406,.40859E-3,.11756E-3,0
QIANKUN-1,2023-103B,2026-06-14T16:21:00.720576,16.08793316,.0029538,96.1498,210.7043,144.4665,215.8596,0,U,57422,999,16689,.23067127E-4,.20608E-3,.184853E-5
FENGYUN 3F,2023-111A,2026-06-15T03:24:39.235392,14.19938807,.0001583,98.6835,236.1888,94.9423,265.1934,0,U,57490,999,14857,.45887E-4,.54E-6,0
HJ-2F,2023-116A,2026-06-15T01:59:58.251840,15.22296054,.0010038,97.3836,171.3385,58.3932,301.8283,0,U,57519,999,15843,.32844E-3,.7507E-4,0
XRISM,2023-137A,2026-06-14T22:43:24.892896,15.12448733,.0007968,31.0032,14.1135,301.5988,58.3873,0,U,57800,999,15252,.25816E-3,.4701E-4,0
METEOR-M2 4,2024-039A,2026-06-15T05:07:57.150624,14.22429364,.0007178,98.7010,125.5367,166.5197,193.6174,0,U,59051,999,11898,.18433E-4,-.3E-7,0
GRBBETA,2024-128C,2026-06-14T21:31:53.269248,15.06627135,.0040926,61.9891,224.3011,134.1963,226.2505,0,U,60237,999,10592,.22262E-3,.3158E-4,0
TRANSPORTER-11 OBJECT A,2024-149A,2026-06-15T04:41:00.662784,15.32878237,.0002576,97.3737,246.1308,201.3235,158.7900,0,U,60468,999,10175,.22011E-3,.6911E-4,0
WARATAH SEED-1,2024-149B,2026-06-15T03:45:30.513888,15.35901902,.0001342,97.3697,246.7290,184.2479,175.8754,0,U,60469,999,10180,.31403E-3,.10896E-3,0
PHISAT 2,2024-149C,2026-06-15T02:04:41.504736,15.31032831,.0000853,97.3763,245.3143,177.1231,183.0016,0,U,60470,999,10167,.29247E-3,.8693E-4,0
LEMUR-2-TOMATOKECHUP,2024-149D,2026-06-15T03:40:15.774240,15.35998019,.0001239,97.3806,248.1941,179.4574,180.6671,0,U,60471,999,10185,.28281E-3,.9833E-4,0
CONNECTA IOT-1,2024-149E,2026-06-15T04:35:15.359136,15.23526920,.0000413,97.3762,242.5159,321.6973,38.4235,0,U,60472,999,10149,.1457E-3,.3409E-4,0
LOPEN,2024-149F,2026-06-15T04:20:05.104896,15.39637703,.0000709,97.3788,249.5325,183.9235,176.2005,0,U,60473,999,10195,.32543E-3,.12753E-3,0
ROCK,2024-149G,2026-06-15T04:00:44.424576,15.39632671,.0000924,97.3781,249.5347,197.4816,162.6398,0,U,60474,999,10195,.31299E-3,.12259E-3,0
CONNECTA IOT-3,2024-149H,2026-06-15T03:31:28.985664,15.23538491,.0001314,97.3738,242.2261,268.3351,91.7736,0,U,60475,999,10149,.15264E-3,.3576E-4,0
QUBE,2024-149J,2026-06-15T04:02:35.256768,15.47111993,.0001759,97.3783,252.5626,200.4975,159.6205,0,U,60476,999,10215,.37261E-3,.18811E-3,0
WREN-1,2024-149L,2026-06-15T04:29:10.970592,15.41487839,.000314,97.3769,250.2782,258.4141,101.6754,0,U,60478,999,10201,.401E-3,.16736E-3,0
